{
  "norad_id": 67328,
  "name": "STARLINK-36489",
  "history": [
    {
      "epoch": "2026-03-28T18:17:09.377376Z",
      "apogee_km": 484.08297098472394,
      "perigee_km": 481.86765504109826,
      "latitude_deg": -1.2862325219746752e-05,
      "longitude_deg": 117.26630121595258,
      "height_km": 483.1024152040396,
      "semi_major_axis_km": 6861.112313012911,
      "eccentricity": 0.00016144,
      "inclination_deg": 43.0015,
      "raan_deg": 217.7331,
      "arg_perigee_deg": 251.5703,
      "mean_anomaly_deg": 108.4973,
      "mean_motion_rev_day": 15.27604641
    }
  ]
}